{
  "type": "FeatureCollection",
  "features": [
    {
      "type": "Feature",
      "properties": {
        "norad_id": 59600,
        "name": "GSAT0227 (GALILEO 30)",
        "group": "gnss",
        "lat": 28.125497270825395,
        "lon": 128.2313209110382,
        "alt_km": 23216.847629427728,
        "timestamp": "2025-12-13T16:48:32.954972+00:00",
        "meta_object_name": "GSAT0227 (GALILEO 30)",
        "meta_object_id": "2024-079C",
        "meta_epoch": "2025-12-08T22:48:42.234912",
        "meta_mean_motion": 1.70474719,
        "meta_eccentricity": 0.0003262,
        "meta_inclination": 54.9946,
        "meta_ra_of_asc_node": 106.4003,
        "meta_arg_of_pericenter": 114.182,
        "meta_mean_anomaly": 245.816,
        "meta_ephemeris_type": 0,
        "meta_classification_type": "U",
        "meta_norad_cat_id": 59600,
        "meta_element_set_no": 999,
        "meta_rev_at_epoch": 1012,
        "meta_bstar": 0,
        "meta_mean_motion_dot": 9e-08,
        "meta_mean_motion_ddot": 0,
        "tle_line1": "1 59600U 24079C   25342.95048883  .00000009  00000+0  00000+0 0  9990",
        "tle_line2": "2 59600  54.9946 106.4003 0003262 114.1820 245.8160  1.70474719 10123"
      },
      "geometry": {
        "type": "Point",
        "coordinates": [
          128.2313209110382,
          28.125497270825395
        ]
      }
    },
    {
      "type": "Feature",
      "properties": {
        "norad_id": 61182,
        "name": "GSAT0232 (GALILEO 32)",
        "group": "gnss",
        "lat": -38.75308038116442,
        "lon": 80.24966760936006,
        "alt_km": 23221.41953949056,
        "timestamp": "2025-12-13T16:48:32.954983+00:00",
        "meta_object_name": "GSAT0232 (GALILEO 32)",
        "meta_object_id": "2024-167A",
        "meta_epoch": "2025-12-12T10:51:18.741600",
        "meta_mean_motion": 1.70473504,
        "meta_eccentricity": 0.00019431,
        "meta_inclination": 55.2408,
        "meta_ra_of_asc_node": 226.4386,
        "meta_arg_of_pericenter": 211.6313,
        "meta_mean_anomaly": 332.0573,
        "meta_ephemeris_type": 0,
        "meta_classification_type": "U",
        "meta_norad_cat_id": 61182,
        "meta_element_set_no": 999,
        "meta_rev_at_epoch": 769,
        "meta_bstar": 0,
        "meta_mean_motion_dot": 1.6e-07,
        "meta_mean_motion_ddot": 0,
        "tle_line1": "1 61182U 24167A   25346.45230025  .00000016  00000+0  00000+0 0  9994",
        "tle_line2": "2 61182  55.2408 226.4386 0001943 211.6313 332.0573  1.70473504  7695"
      },
      "geometry": {
        "type": "Point",
        "coordinates": [
          80.24966760936006,
          -38.75308038116442
        ]
      }
    },
    {
      "type": "Feature",
      "properties": {
        "norad_id": 61183,
        "name": "GSAT0226 (GALILEO 31)",
        "group": "gnss",
        "lat": -14.52001507241096,
        "lon": -143.93467468418925,
        "alt_km": 23225.952588304866,
        "timestamp": "2025-12-13T16:48:32.954994+00:00",
        "meta_object_name": "GSAT0226 (GALILEO 31)",
        "meta_object_id": "2024-167B",
        "meta_epoch": "2025-12-12T20:26:08.685024",
        "meta_mean_motion": 1.70473602,
        "meta_eccentricity": 8.42e-05,
        "meta_inclination": 55.2391,
        "meta_ra_of_asc_node": 226.433,
        "meta_arg_of_pericenter": 113.0334,
        "meta_mean_anomaly": 68.3038,
        "meta_ephemeris_type": 0,
        "meta_classification_type": "U",
        "meta_norad_cat_id": 61183,
        "meta_element_set_no": 999,
        "meta_rev_at_epoch": 767,
        "meta_bstar": 0,
        "meta_mean_motion_dot": 1.9e-07,
        "meta_mean_motion_ddot": 0,
        "tle_line1": "1 61183U 24167B   25346.85148941  .00000019  00000+0  00000+0 0  9997",
        "tle_line2": "2 61183  55.2391 226.4330 0000842 113.0334  68.3038  1.70473602  7673"
      },
      "geometry": {
        "type": "Point",
        "coordinates": [
          -143.93467468418925,
          -14.52001507241096
        ]
      }
    },
    {
      "type": "Feature",
      "properties": {
        "norad_id": 61186,
        "name": "BEIDOU-3 M25 (C47)",
        "group": "gnss",
        "lat": 15.361899365928984,
        "lon": -40.09032646501125,
        "alt_km": 21524.05847685524,
        "timestamp": "2025-12-13T16:48:32.955005+00:00",
        "meta_object_name": "BEIDOU-3 M25 (C47)",
        "meta_object_id": "2024-168B",
        "meta_epoch": "2025-12-12T20:48:06.582240",
        "meta_mean_motion": 1.86230172,
        "meta_eccentricity": 0.00054256,
        "meta_inclination": 54.6417,
        "meta_ra_of_asc_node": 308.715,
        "meta_arg_of_pericenter": 297.6851,
        "meta_mean_anomaly": 242.2861,
        "meta_ephemeris_type": 0,
        "meta_classification_type": "U",
        "meta_norad_cat_id": 61186,
        "meta_element_set_no": 999,
        "meta_rev_at_epoch": 831,
        "meta_bstar": 0,
        "meta_mean_motion_dot": -9.5e-07,
        "meta_mean_motion_ddot": 0,
        "tle_line1": "1 61186U 24168B   25346.86674285 -.00000095  00000+0  00000+0 0  9992",
        "tle_line2": "2 61186  54.6417 308.7150 0005425 297.6851 242.2861  1.86230172  8316"
      },
      "geometry": {
        "type": "Point",
        "coordinates": [
          -40.09032646501125,
          15.361899365928984
        ]
      }
    },
    {
      "type": "Feature",
      "properties": {
        "norad_id": 61187,
        "name": "BEIDOU-3 M27 (C49)",
        "group": "gnss",
        "lat": 21.036985257064877,
        "lon": 112.81056387299564,
        "alt_km": 21532.2320069582,
        "timestamp": "2025-12-13T16:48:32.955016+00:00",
        "meta_object_name": "BEIDOU-3 M27 (C49)",
        "meta_object_id": "2024-168C",
        "meta_epoch": "2025-12-12T03:14:00.933792",
        "meta_mean_motion": 1.86230278,
        "meta_eccentricity": 0.00023762,
        "meta_inclination": 54.6378,
        "meta_ra_of_asc_node": 308.7239,
        "meta_arg_of_pericenter": 336.4923,
        "meta_mean_anomaly": 207.6472,
        "meta_ephemeris_type": 0,
        "meta_classification_type": "U",
        "meta_norad_cat_id": 61187,
        "meta_element_set_no": 999,
        "meta_rev_at_epoch": 577,
        "meta_bstar": 0,
        "meta_mean_motion_dot": -9.1e-07,
        "meta_mean_motion_ddot": 0,
        "tle_line1": "1 61187U 24168C   25346.13473303 -.00000091  00000+0  00000+0 0  9997",
        "tle_line2": "2 61187  54.6378 308.7239 0002376 336.4923 207.6472  1.86230278  5772"
      },
      "geometry": {
        "type": "Point",
        "coordinates": [
          112.81056387299564,
          21.036985257064877
        ]
      }
    },
    {
      "type": "Feature",
      "properties": {
        "norad_id": 62339,
        "name": "GPS BIII-7  (PRN 01)",
        "group": "gnss",
        "lat": -41.541072708802936,
        "lon": -159.8033240535999,
        "alt_km": 20197.81414499302,
        "timestamp": "2025-12-13T16:48:32.955035+00:00",
        "meta_object_name": "GPS BIII-7  (PRN 01)",
        "meta_object_id": "2024-242A",
        "meta_epoch": "2025-12-10T14:03:42.090048",
        "meta_mean_motion": 2.00567746,
        "meta_eccentricity": 0.0012131,
        "meta_inclination": 54.9242,
        "meta_ra_of_asc_node": 341.8267,
        "meta_arg_of_pericenter": 344.331,
        "meta_mean_anomaly": 161.0631,
        "meta_ephemeris_type": 0,
        "meta_classification_type": "U",
        "meta_norad_cat_id": 62339,
        "meta_element_set_no": 999,
        "meta_rev_at_epoch": 747,
        "meta_bstar": 0,
        "meta_mean_motion_dot": -9e-07,
        "meta_mean_motion_ddot": 0,
        "tle_line1": "1 62339U 24242A   25344.58590382 -.00000090  00000+0  00000+0 0  9993",
        "tle_line2": "2 62339  54.9242 341.8267 0012131 344.3310 161.0631  2.00567746  7471"
      },
      "geometry": {
        "type": "Point",
        "coordinates": [
          -159.8033240535999,
          -41.541072708802936
        ]
      }
    },
    {
      "type": "Feature",
      "properties": {
        "norad_id": 62850,
        "name": "NVS-02 (IRNSS-1K)",
        "group": "gnss",
        "lat": -9.310628416841036,
        "lon": 172.6150240916644,
        "alt_km": 37235.99475258624,
        "timestamp": "2025-12-13T16:48:32.955047+00:00",
        "meta_object_name": "NVS-02 (IRNSS-1K)",
        "meta_object_id": "2025-020A",
        "meta_epoch": "2025-12-12T02:07:34.106016",
        "meta_mean_motion": 2.17593522,
        "meta_eccentricity": 0.73478965,
        "meta_inclination": 20.9848,
        "meta_ra_of_asc_node": 327.8954,
        "meta_arg_of_pericenter": 25.8103,
        "meta_mean_anomaly": 357.2743,
        "meta_ephemeris_type": 0,
        "meta_classification_type": "U",
        "meta_norad_cat_id": 62850,
        "meta_element_set_no": 999,
        "meta_rev_at_epoch": 690,
        "meta_bstar": 0.00034083233,
        "meta_mean_motion_dot": 3.05e-06,
        "meta_mean_motion_ddot": 0,
        "tle_line1": "1 62850U 25020A   25346.08858919  .00000305  00000+0  34083-3 0  9996",
        "tle_line2": "2 62850  20.9848 327.8954 7347896  25.8103 357.2743  2.17593522  6907"
      },
      "geometry": {
        "type": "Point",
        "coordinates": [
          172.6150240916644,
          -9.310628416841036
        ]
      }
    }
  ]
}